NORAD_CAT_ID,OBJECT_NAME,OBJECT_TYPE,EPOCH,MEAN_MOTION,ECCENTRICITY,INCLINATION,RA_OF_ASC_NODE,ARG_OF_PERICENTER,MEAN_ANOMALY,BSTAR,MEAN_MOTION_DOT,MEAN_MOTION_DDOT,TLE_LINE0,TLE_LINE1,TLE_LINE2,SEMIMAJOR_AXIS,PERIOD,APOGEE,PERIGEE,DECAYED
51124.0,STARLINK-3389,PAYLOAD,2023-07-11 16:30:11,15.08842061,0.0001064,53.2185,342.6081,89.1351,270.9763,8.7284e-05,1.102e-05,0.0,0 STARLINK-3389,1 51124U 22005W   23192.68763286  .00001102  00000-0  87284-4 0  9992,2 51124  53.2185 342.6081 0001064  89.1351 270.9763 15.08842061 83113,6917.874,95.437,540.475,539.003,0.0
51124.0,STARLINK-3389,PAYLOAD,2023-07-13 16:11:46,15.08834155,0.0001014,53.2186,333.6896,84.2148,275.896,-4.1875e-06,-3.54e-06,0.0,0 STARLINK-3389,1 51124U 22005W   23194.67484102 -.00000354  00000-0 -41875-5 0  9997,2 51124  53.2186 333.6896 0001014  84.2148 275.8960 15.08834155 83414,6917.898,95.438,540.465,539.062,0.0
51124.0,STARLINK-3389,PAYLOAD,2023-07-14 16:02:32,15.08845316,0.0001034,53.2191,329.2296,96.9875,263.1235,7.9405e-05,9.76e-06,0.0,0 STARLINK-3389,1 51124U 22005W   23195.66843320  .00000976  00000-0  79405-4 0  9995,2 51124  53.2191 329.2296 0001034  96.9875 263.1235 15.08845316 83566,6917.864,95.437,540.444,539.014,0.0
51124.0,STARLINK-3389,PAYLOAD,2023-07-15 17:28:43,15.08839642,0.0001026,53.2188,324.4696,88.8757,271.2353,0.00011156,1.488e-05,0.0,0 STARLINK-3389,1 51124U 22005W   23196.72827887  .00001488  00000-0  11156-3 0  9990,2 51124  53.2188 324.4696 0001026  88.8757 271.2353 15.08839642 83727,6917.881,95.438,540.456,539.037,0.0
51124.0,STARLINK-3389,PAYLOAD,2023-07-16 09:22:35,15.08830304,0.0001071,53.2177,321.4941,87.2973,272.8141,4.5014e-05,4.29e-06,0.0,0 STARLINK-3389,1 51124U 22005W   23197.39068854  .00000429  00000-0  45014-4 0  9990,2 51124  53.2177 321.4941 0001071  87.2973 272.8141 15.08830304 83827,6917.91,95.438,540.516,539.034,0.0
51124.0,STARLINK-3389,PAYLOAD,2023-07-16 14:08:44,15.08837293,0.0001108,53.2187,320.6043,99.3318,260.7799,-9.8607e-06,-4.45e-06,0.0,0 STARLINK-3389,1 51124U 22005W   23197.58940653 -.00000445  00000-0 -98607-5 0  9994,2 51124  53.2187 320.6043 0001108  99.3318 260.7799 15.08837293 83852,6917.889,95.438,540.52,538.987,0.0
51124.0,STARLINK-3389,PAYLOAD,2023-07-17 15:34:54,15.08848437,0.0001045,53.2188,315.8452,83.0925,277.0186,6.701e-05,7.79e-06,0.0,0 STARLINK-3389,1 51124U 22005W   23198.64923888  .00000779  00000-0  67010-4 0  9994,2 51124  53.2188 315.8452 0001045  83.0925 277.0186 15.08848437 84019,6917.855,95.437,540.443,538.997,0.0
51124.0,STARLINK-3389,PAYLOAD,2023-07-17 20:21:02,15.08856966,9.89e-05,53.2179,314.9526,84.5371,275.5734,0.00014915,2.088e-05,0.0,0 STARLINK-3389,1 51124U 22005W   23198.84795026  .00002088  00000-0  14915-3 0  9997,2 51124  53.2179 314.9526 0000989  84.5371 275.5734 15.08856966 84049,6917.829,95.436,540.378,539.009,0.0
51124.0,STARLINK-3389,PAYLOAD,2023-07-18 10:39:33,15.08823763,8.75e-05,53.2194,312.2776,59.3127,300.7951,1.0612e-05,-1.19e-06,0.0,0 STARLINK-3389,1 51124U 22005W   23199.44413819 -.00000119  00000-0  10612-4 0  9996,2 51124  53.2194 312.2776 0000875  59.3127 300.7951 15.08823763 84138,6917.93,95.439,540.4,539.19,0.0
51124.0,STARLINK-3389,PAYLOAD,2023-07-18 17:01:04,15.08843413,0.000121,53.2176,311.087,85.8934,274.2197,0.00013935,1.931e-05,0.0,0 STARLINK-3389,1 51124U 22005W   23199.70908472  .00001931  00000-0  13935-3 0  9991,2 51124  53.2176 311.0870 0001210  85.8934 274.2197 15.08843413 84179,6917.87,95.437,540.572,538.898,0.0
51124.0,STARLINK-3389,PAYLOAD,2023-07-19 07:19:33,15.08833104,0.0001316,53.2193,308.4134,107.3861,252.7275,2.8204e-05,1.61e-06,0.0,0 STARLINK-3389,1 51124U 22005W   23200.30525164  .00000161  00000-0  28204-4 0  9993,2 51124  53.2193 308.4134 0001316 107.3861 252.7275 15.08833104 84261,6917.901,95.438,540.677,538.856,0.0
51124.0,STARLINK-3389,PAYLOAD,2023-07-19 16:51:52,15.08841892,0.0001288,53.2184,306.629,97.8887,262.2252,2.9952e-05,1.89e-06,0.0,0 STARLINK-3389,1 51124U 22005W   23200.70268928  .00000189  00000-0  29952-4 0  9990,2 51124  53.2184 306.6290 0001288  97.8887 262.2252 15.08841892 84324,6917.875,95.437,540.631,538.849,0.0
51124.0,STARLINK-3389,PAYLOAD,2023-07-20 13:31:52,15.08851922,0.0001293,53.2191,302.7625,109.0298,251.0835,0.00014262,1.983e-05,0.0,0 STARLINK-3389,1 51124U 22005W   23201.56380099  .00001983  00000-0  14262-3 0  9999,2 51124  53.2191 302.7625 0001293 109.0298 251.0835 15.08851922 84451,6917.844,95.437,540.603,538.814,0.0
51124.0,STARLINK-3389,PAYLOAD,2023-07-21 14:58:02,15.08857166,0.0001271,53.218,298.005,100.7708,259.3427,0.00024158,3.561e-05,0.0,0 STARLINK-3389,1 51124U 22005W   23202.62363453  .00003561  00000-0  24158-3 0  9991,2 51124  53.2180 298.0050 0001271 100.7708 259.3427 15.08857166 84610,6917.828,95.436,540.572,538.814,0.0
51124.0,STARLINK-3389,PAYLOAD,2023-07-24 06:33:28,15.08834138,7.65e-05,53.216,286.1101,93.9549,266.153,9.693e-05,1.255e-05,0.0,0 STARLINK-3389,1 51124U 22005W   23205.27325189  .00001255  00000-0  96930-4 0  9995,2 51124  53.2160 286.1101 0000765  93.9549 266.1530 15.08834138 83902,6917.898,95.438,540.293,539.234,0.0
51124.0,STARLINK-3389,PAYLOAD,2023-07-25 11:10:25,15.08838537,7.9e-05,53.2158,280.7562,95.44,264.6682,0.00010714,1.418e-05,0.0,0 STARLINK-3389,1 51124U 22005W   23206.46557186  .00001418  00000-0  10714-3 0  9997,2 51124  53.2158 280.7562 0000790  95.4400 264.6682 15.08838537 84089,6917.885,95.438,540.296,539.203,0.0
51124.0,STARLINK-3389,PAYLOAD,2023-07-26 04:39:39,15.08841577,9.54e-05,53.2154,277.485,95.2244,264.8857,0.00010006,1.305e-05,0.0,0 STARLINK-3389,1 51124U 22005W   23207.19421178  .00001305  00000-0  10006-3 0  9998,2 51124  53.2154 277.4850 0000954  95.2244 264.8857 15.08841577 84190,6917.876,95.437,540.401,539.081,0.0
51124.0,STARLINK-3389,PAYLOAD,2023-07-26 22:08:53,15.08848387,8.28e-05,53.2154,274.2146,84.5011,275.6075,0.00022827,3.348e-05,0.0,0 STARLINK-3389,1 51124U 22005W   23207.92284701  .00003348  00000-0  22827-3 0  9991,2 51124  53.2154 274.2146 0000828  84.5011 275.6075 15.08848387 84307,6917.855,95.437,540.293,539.147,0.0
51124.0,STARLINK-3389,PAYLOAD,2023-07-27 04:30:26,15.08845653,8.88e-05,53.2155,273.0241,106.2473,253.8617,0.00013633,1.883e-05,0.0,0 STARLINK-3389,1 51124U 22005W   23208.18780760  .00001883  00000-0  13633-3 0  9993,2 51124  53.2155 273.0241 0000888 106.2473 253.8617 15.08845653 84348,6917.863,95.437,540.342,539.114,0.0
51124.0,STARLINK-3389,PAYLOAD,2023-07-28 04:21:13,15.08838452,9.23e-05,53.2159,268.564,102.5976,257.512,-2.6431e-05,-7.08e-06,0.0,0 STARLINK-3389,1 51124U 22005W   23209.18141119 -.00000708  00000-0 -26431-4 0  9991,2 51124  53.2159 268.5640 0000923 102.5976 257.5120 15.08838452 85600,6917.885,95.438,540.389,539.112,0.0
51124.0,STARLINK-3389,PAYLOAD,2023-07-28 12:18:10,15.08834768,8.98e-05,53.2165,267.077,104.0077,256.1015,-4.5101e-05,-1.005e-05,0.0,0 STARLINK-3389,1 51124U 22005W   23209.51261688 -.00001005  00000-0 -45101-4 0  9998,2 51124  53.2165 267.0770 0000898 104.0077 256.1015 15.08834768 84541,6917.896,95.438,540.383,539.14,0.0
51124.0,STARLINK-3389,PAYLOAD,2023-07-29 02:36:38,15.08831701,8.1e-05,53.2168,264.3998,105.8228,254.2853,2.4845e-05,1.08e-06,0.0,0 STARLINK-3389,1 51124U 22005W   23210.10877818  .00000108  00000-0  24845-4 0  9996,2 51124  53.2168 264.3998 0000810 105.8228 254.2853 15.08831701 85743,6917.906,95.438,540.331,539.21,0.0
51124.0,STARLINK-3389,PAYLOAD,2023-07-29 10:33:33,15.08838583,8.81e-05,53.2164,262.9151,81.6499,278.4593,9.4243e-05,1.212e-05,0.0,0 STARLINK-3389,1 51124U 22005W   23210.43997334  .00001212  00000-0  94243-4 0  9994,2 51124  53.2164 262.9151 0000881  81.6499 278.4593 15.08838583 85792,6917.885,95.438,540.359,539.14,0.0
51124.0,STARLINK-3389,PAYLOAD,2023-07-30 08:48:57,15.08835025,9.58e-05,53.2164,258.7517,93.296,266.8141,0.00014377,2.001e-05,0.0,0 STARLINK-3389,1 51124U 22005W   23211.36733762  .00002001  00000-0  14377-3 0  9996,2 51124  53.2164 258.7517 0000958  93.2960 266.8141 15.08835025 85932,6917.896,95.438,540.423,539.098,0.0
51124.0,STARLINK-3389,PAYLOAD,2023-07-31 10:15:08,15.08842713,0.0001063,53.217,253.994,95.4502,264.6612,8.9674e-05,1.14e-05,0.0,0 STARLINK-3389,1 51124U 22005W   23212.42717593  .00001140  00000-0  89674-4 0  9994,2 51124  53.2170 253.9940 0001063  95.4502 264.6612 15.08842713 86099,6917.872,95.437,540.472,539.002,0.0
51124.0,STARLINK-3389,PAYLOAD,2023-08-01 11:41:18,15.08838918,0.0001031,53.2163,249.2358,84.3542,275.7568,3.7862e-05,3.15e-06,0.0,0 STARLINK-3389,1 51124U 22005W   23213.48701993  .00000315  00000-0  37862-4 0  9993,2 51124  53.2163 249.2358 0001031  84.3542 275.7568 15.08838918 86251,6917.884,95.438,540.462,539.035,0.0
51124.0,STARLINK-3389,PAYLOAD,2023-08-03 01:50:33,15.08843604,0.0001042,53.2159,242.0997,78.7622,281.3487,8.7525e-05,1.106e-05,0.0,0 STARLINK-3389,1 51124U 22005W   23215.07677603  .00001106  00000-0  87525-4 0  9990,2 51124  53.2159 242.0997 0001042  78.7622 281.3487 15.08843604 86491,6917.869,95.437,540.455,539.014,0.0
51124.0,STARLINK-3389,PAYLOAD,2023-08-04 08:02:53,15.08835891,0.0001038,53.2158,236.449,80.4251,279.6859,2.5006e-05,1.1e-06,0.0,0 STARLINK-3389,1 51124U 22005W   23216.33534339  .00000110  00000-0  25006-4 0  9998,2 51124  53.2158 236.4490 0001038  80.4251 279.6859 15.08835891 86681,6917.893,95.438,540.476,539.04,0.0
51124.0,STARLINK-3389,PAYLOAD,2023-08-05 06:18:17,15.08844055,0.0001008,53.2156,232.2864,81.7299,278.3807,4.1821e-05,3.78e-06,0.0,0 STARLINK-3389,1 51124U 22005W   23217.26269823  .00000378  00000-0  41821-4 0  9993,2 51124  53.2156 232.2864 0001008  81.7299 278.3807 15.08844055 86828,6917.868,95.437,540.43,539.036,0.0
51124.0,STARLINK-3389,PAYLOAD,2023-08-06 04:33:41,15.08837752,9.94e-05,53.2153,228.1226,90.4004,269.7102,8.4718e-05,1.061e-05,0.0,0 STARLINK-3389,1 51124U 22005W   23218.19006080  .00001061  00000-0  84718-4 0  9992,2 51124  53.2153 228.1226 0000994  90.4004 269.7102 15.08837752 86968,6917.887,95.438,540.44,539.065,0.0
